GSAT0201 (GALILEO 5)    
1 40128U 14050A   23361.07071658 -.00000101  00000+0  00000+0 0  9995
2 40128  49.8299 310.0145 1605760 144.6491 227.1663  1.85519629 61567
GSAT0202 (GALILEO 6)    
1 40129U 14050B   23361.32968207 -.00000099  00000+0  00000+0 0  9995
2 40129  49.8477 309.0780 1603962 145.4674 226.1089  1.85520364 63733
IRNSS-1C                
1 40269U 14061A   23361.49916617 -.00000157  00000+0  00000+0 0  9993
2 40269   4.2435 109.3645 0017644   4.3542 244.7617  1.00271589 33638
NAVSTAR 72 (USA 258)    
1 40294U 14068A   23361.49067033 -.00000065  00000+0  00000+0 0  9995
2 40294  56.2734  65.9883 0048511  61.9929 298.5476  2.00579353 67101
COSMOS 2501             
1 40315U 14075A   23359.09962902  .00000089  00000+0  00000+0 0  9994
2 40315  63.6289 221.7681 0018091 204.4985 155.5052  2.13101297 70564
NAVSTAR 73 (USA 260)    
1 40534U 15013A   23361.13883080  .00000037  00000+0  00000+0 0  9990
2 40534  53.4107 241.5735 0085681  27.8078 332.7372  2.00576435 63711
GSAT0203 (GALILEO 7)    
1 40544U 15017A   23360.28677118 -.00000090  00000+0  00000+0 0  9993
2 40544  56.9165   6.1959 0005565 265.7960  94.1697  1.70476007 53799
GSAT0204 (GALILEO 8)    
1 40545U 15017B   23359.95414426 -.00000090  00000+0  00000+0 0  9997
2 40545  56.9226   6.2197 0005207 255.9422 104.0301  1.70475546 16834
IRNSS-1D                
1 40547U 15018A   23361.58386612 -.00000257  00000+0  00000+0 0  9992
2 40547  27.8377 255.6867 0018423 180.9320 341.2249  1.00275945 31930
BEIDOU-3S IGSO-1S       
1 40549U 15019A   23360.88174200 -.00000190  00000+0  00000+0 0  9991
2 40549  50.8952 306.2352 0035909 195.3949   5.5509  1.00287643 32011
NAVSTAR 74 (USA 262)    
1 40730U 15033A   23361.29981510 -.00000071  00000+0  00000+0 0  9993
2 40730  54.7489 304.0999 0090252  15.2408 345.0268  2.00576214 61883
BEIDOU-3S M2S           
1 40748U 15037A   23359.55479213 -.00000105  00000+0  00000+0 0  9992
2 40748  55.5961 332.9628 0012379 260.3453  99.5025  1.86233100 57279
BEIDOU-3S M1S           
1 40749U 15037B   23360.89892312 -.00000104  00000+0  00000+0 0  9990
2 40749  55.5982 332.9039 0006824 315.7289  44.2032  1.86232995 57309
GSAT0205 (GALILEO 9)    
1 40889U 15045A   23360.30927175  .00000026  00000+0  00000+0 0  9998
2 40889  55.3023 246.5767 0005406  19.3754 340.7366  1.70473130 51607
GSAT0206 (GALILEO 10)   
1 40890U 15045B   23360.52997411  .00000026  00000+0  00000+0 0  9994
2 40890  55.3004 246.5662 0004131  27.9849 332.1295  1.70473001 51632
BEIDOU-3S IGSO-2S       
1 40938U 15053A   23361.24027588 -.00000111  00000+0  00000+0 0  9991
2 40938  50.6292 269.4239 0046250 192.5950 174.1441  1.00257275 30300
NAVSTAR 75 (USA 265)    
1 41019U 15062A   23361.34986378 -.00000065  00000+0  00000+0 0  9992
2 41019  56.2559  65.8458 0093881 223.3728 135.9335  2.00562325 59728
GSAT-15                 
1 41028U 15065A   23361.57258580 -.00000249  00000+0  00000+0 0  9991
2 41028   0.0388 270.5093 0002490 334.6945 150.2216  1.00271085 29744
GSAT0209 (GALILEO 12)   
1 41174U 15079A   23360.11383341 -.00000006  00000+0  00000+0 0  9992
2 41174  55.3505 126.0997 0002022 318.9947  40.9316  1.70474652 49364
GSAT0208 (GALILEO 11)   
1 41175U 15079B   23361.50667118 -.00000004  00000+0  00000+0 0  9992
2 41175  55.3490 126.0595 0001299 319.9042  40.0301  1.70474554 49809
IRNSS-1E                
1 41241U 16003A   23361.64044306 -.00000314  00000+0  00000+0 0  9991
2 41241  31.2390  76.0733 0021598 184.6372 177.5269  1.00270680 29039
NAVSTAR 76 (USA 266)    
1 41328U 16007A   23361.43487457 -.00000016  00000+0  00000+0 0  9995
2 41328  55.0600 125.3168 0074968 234.5421 124.7167  2.00570266 57735
COSMOS 2514             
1 41330U 16008A   23360.95816364 -.00000075  00000+0  00000+0 0  9993
2 41330  65.4698 343.8237 0011503 225.1400 134.7674  2.13102695 61373
IRNSS-1F                
1 41384U 16015A   23361.54609233  .00000166  00000+0  00000+0 0  9991
2 41384   3.1774 124.6433 0022363 181.1109  18.9148  1.00272990 28612
BEIDOU-2 IGSO-6         
1 41434U 16021A   23361.60917128 -.00000152  00000+0  00000+0 0  9992
2 41434  58.9172  47.0990 0049803 224.2192 138.3356  1.00260946 28439
IRNSS-1G                
1 41469U 16027A   23361.59380929 -.00000328  00000+0  00000+0 0  9992
2 41469   3.0630 126.0785 0002968 260.3717  52.6853  1.00274300 28127
GSAT0211 (GALILEO 14)   
1 41549U 16030A   23359.86913168  .00000026  00000+0  00000+0 0  9993
2 41549  55.4463 246.5769 0004513  16.4561 343.6482  1.70473093 47259
GSAT0210 (GALILEO 13)   
1 41550U 16030B   23361.33359310  .00000026  00000+0  00000+0 0  9993
2 41550  55.4472 246.5376 0002344 332.7270  27.3551  1.70473498 47270
COSMOS 2516             
1 41554U 16032A   23361.07002523  .00000075  00000+0  00000+0 0  9995
2 41554  63.8554 222.1322 0014705 211.0490 148.9533  2.13106456 58981
BEIDOU-2 G7             
1 41586U 16037A   23361.64044324 -.00000346  00000+0  00000+0 0  9995
2 41586   1.4961  66.6818 0009286 313.4738  56.8325  1.00270913 27748
EUTELSAT 117 WEST B     
1 41589U 16038B   23361.41175177 -.00000002  00000+0  00000+0 0  9994
2 41589   0.0198 180.9971 0000506 284.4628  21.4034  1.00271877 27610
GSAT0207 (GALILEO 15)   
1 41859U 16069A   23360.99418189 -.00000005  00000+0  00000+0 0  9996
2 41859  55.0138 126.1196 0002227 288.2731  71.6451  1.70474638 44003
GSAT0212 (GALILEO 16)   
1 41860U 16069B   23358.50237672 -.00000001  00000+0  00000+0 0  9994
2 41860  55.0088 126.1850 0001125   7.1533 352.7931  1.70474798 44216
GSAT0213 (GALILEO 17)   
1 41861U 16069C   23360.62908419 -.00000006  00000+0  00000+0 0  9990
2 41861  55.0133 126.1325 0002750 253.5922 106.3194  1.70473429 44112
GSAT0214 (GALILEO 18)   
1 41862U 16069D   23360.18936526 -.00000006  00000+0  00000+0 0  9992
2 41862  55.0123 126.1387 0001826 248.8534 111.0686  1.70474928 44236
SES-15                  
1 42709U 17026A   23361.39955697  .00000069  00000+0  00000+0 0  9999
2 42709   0.0230  32.3740 0000591 242.2344 195.6831  1.00267759 25090
QZS-2 (MICHIBIKI-2)     
1 42738U 17028A   23361.56619458 -.00000157  00000+0  00000+0 0  9993
2 42738  40.8529 256.2327 0756833 269.5816 275.1228  1.00281884 24083
QZS-3 (MICHIBIKI-3)     
1 42917U 17048A   23361.62543064 -.00000339  00000+0  00000+0 0  9992
2 42917   0.0798 141.5029 0001946 143.6720 162.8762  1.00270727 23209
COSMOS 2522             
1 42939U 17055A   23359.86106648  .00000085  00000+0  00000+0 0  9997
2 42939  64.0895 222.7321 0005566 234.0841 125.9552  2.13101983 48700
QZS-4 (MICHIBIKI-4)     
1 42965U 17062A   23361.31521957 -.00000364  00000+0  00000+0 0  9992
2 42965  40.5908 354.9890 0751394 271.7669  77.4259  1.00248334 22754
BEIDOU-3 M1             
1 43001U 17069A   23361.51372549 -.00000051  00000+0  00000+0 0  9997
2 43001  55.9289  93.0153 0009374 290.7105  69.1920  1.86231402 41791
BEIDOU-3 M2             
1 43002U 17069B   23359.83977162 -.00000065  00000+0  00000+0 0  9997
2 43002  55.9271  93.1075 0006666 313.8940  46.0444  1.86231112 41751
GSAT0215 (GALILEO 19)   
1 43055U 17079A   23360.09198371  .00000027  00000+0  00000+0 0  9990
2 43055  55.4249 246.3950 0001713 337.8299  22.2535  1.70473891 37571
GSAT0216 (GALILEO 20)   
1 43056U 17079B   23360.38376374  .00000027  00000+0  00000+0 0  9994
2 43056  55.4240 246.3868 0004194 300.4358  59.6148  1.70474049 37591
GSAT0217 (GALILEO 21)   
1 43057U 17079C   23360.60422232  .00000027  00000+0  00000+0 0  9995
2 43057  55.4232 246.3796 0003174 335.2088  24.8687  1.70473864 37581
GSAT0218 (GALILEO 22)   
1 43058U 17079D   23359.06447463  .00000025  00000+0  00000+0 0  9995
2 43058  55.4236 246.4196 0003575 301.5098  58.5411  1.70473918 37559
BEIDOU-3 M7             
1 43107U 18003A   23361.20087311 -.00000104  00000+0  00000+0 0  9998
2 43107  55.0521 333.5738 0003162  45.4948 314.5187  1.86232430 40533
BEIDOU-3 M8             
1 43108U 18003B   23361.13990508 -.00000104  00000+0  00000+0 0  9992
2 43108  55.0450 333.5623 0004833 269.5435  90.3886  1.86230916 40547
BEIDOU-3 M4             
1 43207U 18018A   23361.58176232 -.00000051  00000+0  00000+0 0  9998
2 43207  55.8879  93.1080 0003852 346.4722  13.5205  1.86231347 39932
BEIDOU-3 M3             
1 43208U 18018B   23361.11143179 -.00000055  00000+0  00000+0 0  9996
2 43208  55.8869  93.1282 0006870 301.1371  58.7957  1.86231490 39920
BEIDOU-3 M9             
1 43245U 18029A   23360.25982094 -.00000105  00000+0  00000+0 0  9996
2 43245  54.9422 331.3297 0002059 284.1600  75.8034  1.86232624 39060
BEIDOU-3 M10            
1 43246U 18029B   23361.26359140 -.00000103  00000+0  00000+0 0  9997
2 43246  54.9390 331.3239 0004534 344.9793  14.9936  1.86232791 39069
IRNSS-1I                
1 43286U 18035A   23360.83428807  .00000071  00000+0  00000+0 0  9990
2 43286  28.7087  88.3879 0022344 182.8627 179.1781  1.00277367 21010
COSMOS 2527             
1 43508U 18053A   23360.75819795 -.00000032  00000+0  00000+0 0  9996
2 43508  65.1353 104.1452 0008817 224.3764 135.5449  2.13102372 43025
BEIDOU-2 IGSO-7         
1 43539U 18057A   23359.92925694 -.00000055  00000+0  00000+0 0  9992
2 43539  55.1261 170.8697 0064432 228.9664 139.1546  1.00249038 20086
GSAT0221 (GALILEO 25)   
1 43564U 18060A   23361.31034053 -.00000089  00000+0  00000+0 0  9997
2 43564  57.2968   6.1249 0005930 279.0784  80.8811  1.70475882 33775
GSAT0222 (GALILEO 26)   
1 43565U 18060B   23360.35541963 -.00000089  00000+0  00000+0 0  9994
2 43565  57.3004   6.1522 0005127 257.2032 102.7686  1.70475582 33809
GSAT0219 (GALILEO 23)   
1 43566U 18060C   23361.16416827 -.00000089  00000+0  00000+0 0  9995
2 43566  57.2995   6.1324 0005142 285.3563  74.6139  1.70475892 33798
GSAT0220 (GALILEO 24)   
1 43567U 18060D   23360.21150252 -.00000089  00000+0  00000+0 0  9998
2 43567  57.2994   6.1579 0005486 282.0370  77.9311  1.70475846 33765
BEIDOU-3 M5             
1 43581U 18062A   23360.41046337  .00000082  00000+0  00000+0 0  9998
2 43581  54.1557 213.0563 0001998 342.3551  17.7218  1.86228757 36809
